QIANFAN-41              
1 62242U 24232F   25276.32672406  .00000188  00000+0  27204-3 0  9995
2 62242  89.0002  48.2891 0014832  41.3531 318.8740 13.50974360 89741
QIANFAN-42              
1 62243U 24232G   25276.31374259  .00001133  00000+0  48384-3 0  9993
2 62243  89.0001  45.3863 0013362 320.8667  39.1558 14.24375036 91346
QIANFAN-43              
1 62244U 24232H   25276.32265243  .00000352  00000+0  52664-3 0  9995
2 62244  89.0006  48.3517 0016488  45.7565 314.4936 13.50975663 58356
QIANFAN-44              
1 62245U 24232J   25276.31025267  .00000171  00000+0  24635-3 0  9991
2 62245  89.0005  48.1647 0014635  43.6528 316.5778 13.50976835 89821
QIANFAN-45              
1 62246U 24232K   25276.35143472  .00000163  00000+0  23320-3 0  9996
2 62246  89.0008  48.3047 0015260  42.9587 317.2753 13.50973460 89757
QIANFAN-46              
1 62247U 24232L   25276.30203603  .00000169  00000+0  24256-3 0  9990
2 62247  89.0004  48.3815 0015488  48.1820 312.0651 13.50974140 89708
QIANFAN-47              
1 62248U 24232M   25276.30618281  .00000168  00000+0  24135-3 0  9998
2 62248  89.0000  48.3169 0015888  47.2236 313.0249 13.50975842 89739
QIANFAN-48              
1 62249U 24232N   25276.34324437  .00000173  00000+0  24929-3 0  9997
2 62249  89.0004  48.3123 0018187  48.8780 311.3938 13.50971624 89741
